$$SOE
2459580.500000000, A.D. 2022-Jan-01 00:00:00.0000, 2.450369901319041E+08, 4.340877073272175E+08, -5.585169701587400E+07,
2459587.500000000, A.D. 2022-Jan-08 00:00:00.0000, 2.369712851578968E+08, 4.387268911917821E+08, -5.342716154802543E+07,
2459594.500000000, A.D. 2022-Jan-15 00:00:00.0000, 2.288143297738853E+08, 4.431971679198093E+08, -5.098205760440463E+07,
2459601.500000000, A.D. 2022-Jan-22 00:00:00.0000, 2.205692089948945E+08, 4.474967021599209E+08, -4.851731379358084E+07,
2459608.500000000, A.D. 2022-Jan-29 00:00:00.0000, 2.122390421409045E+08, 4.516237154927158E+08, -4.603386646160273E+07,
2459615.500000000, A.D. 2022-Feb-05 00:00:00.0000, 2.038269800061307E+08, 4.555764863447672E+08, -4.353265935034139E+07,
2459622.500000000, A.D. 2022-Feb-12 00:00:00.0000, 1.953362041953586E+08, 4.593533488398333E+08, -4.101464353914960E+07,
2459629.500000000, A.D. 2022-Feb-19 00:00:00.0000, 1.867699273029568E+08, 4.629526929558309E+08, -3.848077735472721E+07,
2459636.500000000, A.D. 2022-Feb-26 00:00:00.0000, 1.781313926221898E+08, 4.663729652634242E+08, -3.593202618775171E+07,
2459643.500000000, A.D. 2022-Mar-05 00:00:00.0000, 1.694238735429342E+08, 4.696126696290074E+08, -3.336936228122944E+07,
2459650.500000000, A.D. 2022-Mar-12 00:00:00.0000, 1.606506728587376E+08, 4.726703678163959E+08, -3.079376451635814E+07,
2459657.500000000, A.D. 2022-Mar-19 00:00:00.0000, 1.518151220535217E+08, 4.755446800153564E+08, -2.820621820024413E+07,
2459664.500000000, A.D. 2022-Mar-26 00:00:00.0000, 1.429205805896036E+08, 4.782342852911252E+08, -2.560771485812441E+07,
2459671.500000000, A.D. 2022-Apr-02 00:00:00.0000, 1.339704352640706E+08, 4.807379218991721E+08, -2.299925204096064E+07,
2459678.500000000, A.D. 2022-Apr-09 00:00:00.0000, 1.249680999047654E+08, 4.830543874703188E+08, -2.038183317301655E+07,
2459685.500000000, A.D. 2022-Apr-16 00:00:00.0000, 1.159170157624378E+08, 4.851825397209679E+08, -1.775646741880453E+07,
2459692.500000000, A.D. 2022-Apr-23 00:00:00.0000, 1.068206513303579E+08, 4.871212987728949E+08, -1.512416936448589E+07,
2459699.500000000, A.D. 2022-Apr-30 00:00:00.0000, 9.768249972063474E+07, 4.888696488354237E+08, -1.248595852543807E+07,
2459706.500000000, A.D. 2022-May-07 00:00:00.0000, 8.850607665764141E+07, 4.904266372760330E+08, -9.842859121877104E+06,
2459713.500000000, A.D. 2022-May-14 00:00:00.0000, 7.929492047751588E+07, 4.917913741195342E+08, -7.195900001769871E+06,
2459720.500000000, A.D. 2022-May-21 00:00:00.0000, 7.005259210301782E+07, 4.929630327343227E+08, -4.546114462675303E+06,
2459727.500000000, A.D. 2022-May-28 00:00:00.0000, 6.078267451423108E+07, 4.939408507458928E+08, -1.894540006698996E+06,
2459734.500000000, A.D. 2022-Jun-04 00:00:00.0000, 5.148877199130804E+07, 4.947241308643200E+08, 7.577819206942618E+05,
2459741.500000000, A.D. 2022-Jun-11 00:00:00.0000, 4.217450927316840E+07, 4.953122416277056E+08, 3.409806195131421E+06,
2459748.500000000, A.D. 2022-Jun-18 00:00:00.0000, 3.284353067014896E+07, 4.957046180747050E+08, 6.060484278810859E+06,
2459755.500000000, A.D. 2022-Jun-25 00:00:00.0000, 2.349949915933365E+07, 4.959007623127995E+08, 8.708764481848896E+06,
2459762.500000000, A.D. 2022-Jul-02 00:00:00.0000, 1.414609559581971E+07, 4.959002439164263E+08, 1.135359220211279E+07,
2459769.500000000, A.D. 2022-Jul-09 00:00:00.0000, 4.787018429295055E+06, 4.957027003320106E+08, 1.399391012252882E+07,
2459776.500000000, A.D. 2022-Jul-16 00:00:00.0000, -4.574016129951298E+06, 4.953078383734198E+08, 1.662865845976046E+07,
2459783.500000000, A.D. 2022-Jul-23 00:00:00.0000, -1.393327569354700E+07, 4.947154368857509E+08, 1.925677547257590E+07,
2459790.500000000, A.D. 2022-Jul-30 00:00:00.0000, -2.328701494192638E+07, 4.939253472210820E+08, 2.187719794852078E+07,
2459797.500000000, A.D. 2022-Aug-06 00:00:00.0000, -3.263147693849932E+07, 4.929374921732379E+08, 2.448886139228472E+07,
2459804.500000000, A.D. 2022-Aug-13 00:00:00.0000, -4.196289333428003E+07, 4.917518661266919E+08, 2.709070021671775E+07,
2459811.500000000, A.D. 2022-Aug-20 00:00:00.0000, -5.127748503164633E+07, 4.903685359142452E+08, 2.968164803952485E+07,
2459818.500000000, A.D. 2022-Aug-27 00:00:00.0000, -6.057146323987478E+07, 4.887876416540048E+08, 3.226063802022862E+07,
2459825.500000000, A.D. 2022-Sep-03 00:00:00.0000, -6.984103067626977E+07, 4.870093974532306E+08, 3.482660320583963E+07,
2459832.500000000, A.D. 2022-Sep-10 00:00:00.0000, -7.908238282462192E+07, 4.850340920024304E+08, 3.737847687918603E+07,
2459839.500000000, A.D. 2022-Sep-17 00:00:00.0000, -8.829170922284684E+07, 4.828620890582975E+08, 3.991519290733761E+07,
2459846.500000000, A.D. 2022-Sep-24 00:00:00.0000, -9.746519471986528E+07, 4.804938277649827E+08, 4.243568608064535E+07,
2459853.500000000, A.D. 2022-Oct-01 00:00:00.0000, -1.065990204617980E+08, 4.779298227911919E+08, 4.493889241865510E+07,
2459860.500000000, A.D. 2022-Oct-08 00:00:00.0000, -1.156893642003527E+08, 4.751706648044976E+08, 4.742374944819021E+07,
2459867.500000000, A.D. 2022-Oct-15 00:00:00.0000, -1.247324008555133E+08, 4.722170224817271E+08, 4.988919663701129E+07,
2459874.500000000, A.D. 2022-Oct-22 00:00:00.0000, -1.337243055132883E+08, 4.690696443705277E+08, 5.233417604530883E+07,
2459881.500000000, A.D. 2022-Oct-29 00:00:00.0000, -1.426612563603208E+08, 4.657293580048564E+08, 5.475763275350288E+07,
2459888.500000000, A.D. 2022-Nov-05 00:00:00.0000, -1.515394354580612E+08, 4.621970690136325E+08, 5.715851509763724E+07,
2459895.500000000, A.D. 2022-Nov-12 00:00:00.0000, -1.603550293221289E+08, 4.584737614902351E+08, 5.953577499613330E+07,
2459902.500000000, A.D. 2022-Nov-19 00:00:00.0000, -1.691042300258552E+08, 4.545604986675931E+08, 6.188836835573125E+07,
2459909.500000000, A.D. 2022-Nov-26 00:00:00.0000, -1.777832365658743E+08, 4.504584234996594E+08, 6.421525549993077E+07,
2459916.500000000, A.D. 2022-Dec-03 00:00:00.0000, -1.863882563240659E+08, 4.461687591361580E+08, 6.651540160368657E+07,
2459923.500000000, A.D. 2022-Dec-10 00:00:00.0000, -1.949155065805833E+08, 4.416928093079057E+08, 6.878777713170388E+07,
2459930.500000000, A.D. 2022-Dec-17 00:00:00.0000, -2.033612160533588E+08, 4.370319585963629E+08, 7.103135827604890E+07,
2459937.500000000, A.D. 2022-Dec-24 00:00:00.0000, -2.117216263546433E+08, 4.321876725201346E+08, 7.324512737769091E+07,
2459944.500000000, A.D. 2022-Dec-31 00:00:00.0000, -2.199929930067978E+08, 4.271614975443360E+08, 7.542807330796099E+07,
2459951.500000000, A.D. 2023-Jan-07 00:00:00.0000, -2.281715858946735E+08, 4.219550619736868E+08, 7.757919187733996E+07,
2459958.500000000, A.D. 2023-Jan-14 00:00:00.0000, -2.362536911216411E+08, 4.165700782254572E+08, 7.969748649271071E+07,
2459965.500000000, A.D. 2023-Jan-21 00:00:00.0000, -2.442356149123353E+08, 4.110083433082850E+08, 8.178196886271244E+07,
2459972.500000000, A.D. 2023-Jan-28 00:00:00.0000, -2.521136858925366E+08, 4.052717373070490E+08, 8.383165939800385E+07,
2459979.500000000, A.D. 2023-Feb-04 00:00:00.0000, -2.598842559560168E+08, 3.993622228987730E+08, 8.584558757276329E+07,
2459986.500000000, A.D. 2023-Feb-11 00:00:00.0000, -2.675437015142281E+08, 3.932818457055373E+08, 8.782279239640310E+07,
2459993.500000000, A.D. 2023-Feb-18 00:00:00.0000, -2.750884251915442E+08, 3.870327346599139E+08, 8.976232293396342E+07,
2460000.500000000, A.D. 2023-Feb-25 00:00:00.0000, -2.825148577028713E+08, 3.806171022194464E+08, 9.166323883784692E+07,
2460007.500000000, A.D. 2023-Mar-04 00:00:00.0000, -2.898194598111395E+08, 3.740372444476470E+08, 9.352461088319936E+07,
2460014.500000000, A.D. 2023-Mar-11 00:00:00.0000, -2.969987243355463E+08, 3.672955409609388E+08, 9.534552150456569E+07,
2460021.500000000, A.D. 2023-Mar-18 00:00:00.0000, -3.040491781626993E+08, 3.603944546910366E+08, 9.712506532566300E+07,
2460028.500000000, A.D. 2023-Mar-25 00:00:00.0000, -3.109673840562869E+08, 3.533365314144298E+08, 9.886234965990105E+07,
2460035.500000000, A.D. 2023-Apr-01 00:00:00.0000, -3.177499418395267E+08, 3.461243994410714E+08, 1.005564949749025E+08,
2460042.500000000, A.D. 2023-Apr-08 00:00:00.0000, -3.243934895647414E+08, 3.387607706860416E+08, 1.022066354776027E+08,
2460049.500000000, A.D. 2023-Apr-15 00:00:00.0000, -3.308947070058609E+08, 3.312484420177054E+08, 1.038119199439742E+08,
2460056.500000000, A.D. 2023-Apr-22 00:00:00.0000, -3.372503196609821E+08, 3.235902938292589E+08, 1.053715123772793E+08,
2460063.500000000, A.D. 2023-Apr-29 00:00:00.0000, -3.434571005259360E+08, 3.157892880819616E+08, 1.068845924263460E+08,
2460070.500000000, A.D. 2023-May-06 00:00:00.0000, -3.495118713985252E+08, 3.078484675972800E+08, 1.083503558698359E+08,
2460077.500000000, A.D. 2023-May-13 00:00:00.0000, -3.554115046902942E+08, 2.997709557027034E+08, 1.097680151827092E+08,
2460084.500000000, A.D. 2023-May-20 00:00:00.0000, -3.611529255110853E+08, 2.915599557387491E+08, 1.111368001229404E+08,
2460091.500000000, A.D. 2023-May-27 00:00:00.0000, -3.667331138321421E+08, 2.832187503966714E+08, 1.124559583180782E+08,
2460098.500000000, A.D. 2023-Jun-03 00:00:00.0000, -3.721491066689522E+08, 2.747507009122570E+08, 1.137247558481706E+08,
2460105.500000000, A.D. 2023-Jun-10 00:00:00.0000, -3.773980002581322E+08, 2.661592461013140E+08, 1.149424778211619E+08,
2460112.500000000, A.D. 2023-Jun-17 00:00:00.0000, -3.824769521368832E+08, 2.574479011757500E+08, 1.161084289268094E+08,
2460119.500000000, A.D. 2023-Jun-24 00:00:00.0000, -3.873831828023258E+08, 2.486202563944410E+08, 1.172219339432387E+08,
2460126.500000000, A.D. 2023-Jul-01 00:00:00.0000, -3.921139766949050E+08, 2.396799763751859E+08, 1.182823382394477E+08,
2460133.500000000, A.D. 2023-Jul-08 00:00:00.0000, -3.966666841779642E+08, 2.306308008880762E+08, 1.192890084935991E+08,
2460140.500000000, A.D. 2023-Jul-15 00:00:00.0000, -4.010387257888675E+08, 2.214765443000411E+08, 1.202413335125710E+08,
2460147.500000000, A.D. 2023-Jul-22 00:00:00.0000, -4.052275952366043E+08, 2.122210926358706E+08, 1.211387247442511E+08,
$$EOE